start=new Date('2022-05-22T00:00:00.000Z').valueOf();
sats=[{"MEAN_MOTION_DOT":"0.00001459","CENTER_NAME":"EARTH","MEAN_ELEMENT_THEORY":"SGP4","ELEMENT_SET_NO":"999","SITE":"AFETR","MEAN_ANOMALY":"311.6935","DECAY_DATE":null,"REV_AT_EPOCH":"8264","INCLINATION":"53.0546","COUNTRY_CODE":"US","MEAN_MOTION_DDOT":"0.0000000000000","PERIAPSIS":"545.901","OBJECT_TYPE":"PAYLOAD","RA_OF_ASC_NODE":"52.3713","EPOCH":"2022-05-21T17:41:44.959488","TLE_LINE2":"2 47167  53.0546  52.3713 0001875  48.4215 311.6935 15.06404503 82642","ARG_OF_PERICENTER":"48.4215","EPHEMERIS_TYPE":"0","BSTAR":"0.00011684000000","FILE":"3457577","MEAN_MOTION":"15.06404503","APOAPSIS":"548.498","LAUNCH_DATE":"2020-11-25","OBJECT_NAME":"STARLINK-1884","RCS_SIZE":"LARGE","TLE_LINE1":"1 47167U 20088AX  22141.73732592  .00001459  00000-0  11684-3 0  9993","ECCENTRICITY":"0.00018750","SEMIMAJOR_AXIS":"6925.335","REF_FRAME":"TEME","GP_ID":"204191796","CLASSIFICATION_TYPE":"U","PERIOD":"95.592","TIME_SYSTEM":"UTC","NORAD_CAT_ID":"47167","OBJECT_ID":"2020-088AX"},{"MEAN_ELEMENT_THEORY":"SGP4","MEAN_MOTION_DOT":"0.00090168","CENTER_NAME":"EARTH","SITE":"AFETR","MEAN_ANOMALY":"82.7035","ELEMENT_SET_NO":"999","PERIAPSIS":"292.913","MEAN_MOTION_DDOT":"0.0000142230000","REV_AT_EPOCH":"8336","DECAY_DATE":null,"COUNTRY_CODE":"US","INCLINATION":"53.0460","EPOCH":"2022-05-21T02:24:00.522720","RA_OF_ASC_NODE":"357.2318","TLE_LINE2":"2 47168  53.0460 357.2318 0003163 277.3632  82.7035 15.92595853 83365","OBJECT_TYPE":"PAYLOAD","ARG_OF_PERICENTER":"277.3632","BSTAR":"0.00026682000000","EPHEMERIS_TYPE":"0","OBJECT_NAME":"STARLINK-1885","RCS_SIZE":"LARGE","TLE_LINE1":"1 47168U 20088AY  22141.10000605  .00090168  14223-4  26682-3 0  9993","APOAPSIS":"297.134","FILE":"3457102","MEAN_MOTION":"15.92595853","LAUNCH_DATE":"2020-11-25","GP_ID":"204156485","ECCENTRICITY":"0.00031630","REF_FRAME":"TEME","SEMIMAJOR_AXIS":"6673.159","CLASSIFICATION_TYPE":"U","PERIOD":"90.418","NORAD_CAT_ID":"47168","TIME_SYSTEM":"UTC","OBJECT_ID":"2020-088AY"},{"PERIAPSIS":"546.059","MEAN_MOTION_DDOT":"0.0000000000000","REV_AT_EPOCH":"8267","DECAY_DATE":null,"COUNTRY_CODE":"US","INCLINATION":"53.0558","EPOCH":"2022-05-21T22:07:07.261248","RA_OF_ASC_NODE":"51.5472","TLE_LINE2":"2 47170  53.0558  51.5472 0001666  53.3821 306.7321 15.06400161 82671","OBJECT_TYPE":"PAYLOAD","MEAN_ELEMENT_THEORY":"SGP4","MEAN_MOTION_DOT":"0.00001700","CENTER_NAME":"EARTH","SITE":"AFETR","MEAN_ANOMALY":"306.7321","ELEMENT_SET_NO":"999","GP_ID":"204192797","ECCENTRICITY":"0.00016660","REF_FRAME":"TEME","SEMIMAJOR_AXIS":"6925.348","PERIOD":"95.592","CLASSIFICATION_TYPE":"U","NORAD_CAT_ID":"47170","OBJECT_ID":"2020-088BA","TIME_SYSTEM":"UTC","ARG_OF_PERICENTER":"53.3821","BSTAR":"0.00013298000000","EPHEMERIS_TYPE":"0","OBJECT_NAME":"STARLINK-1887","RCS_SIZE":"LARGE","TLE_LINE1":"1 47170U 20088BA  22141.92161182  .00001700  00000-0  13298-3 0  9991","APOAPSIS":"548.367","MEAN_MOTION":"15.06400161","FILE":"3457577","LAUNCH_DATE":"2020-11-25"},{"SITE":"AFETR","MEAN_ANOMALY":"298.1379","ELEMENT_SET_NO":"999","MEAN_ELEMENT_THEORY":"SGP4","MEAN_MOTION_DOT":"0.00001661","CENTER_NAME":"EARTH","EPOCH":"2022-05-21T20:59:27.377088","RA_OF_ASC_NODE":"41.7609","TLE_LINE2":"2 47171  53.0571  41.7609 0001739  61.9786 298.1379 15.06398772 82802","OBJECT_TYPE":"PAYLOAD","PERIAPSIS":"546.013","MEAN_MOTION_DDOT":"0.0000000000000","REV_AT_EPOCH":"8280","DECAY_DATE":null,"COUNTRY_CODE":"US","INCLINATION":"53.0571","RCS_SIZE":"LARGE","OBJECT_NAME":"STARLINK-1888","TLE_LINE1":"1 47171U 20088BB  22141.87462242  .00001661  00000-0  13037-3 0  9994","APOAPSIS":"548.422","MEAN_MOTION":"15.06398772","FILE":"3457577","LAUNCH_DATE":"2020-11-25","ARG_OF_PERICENTER":"61.9786","BSTAR":"0.00013037000000","EPHEMERIS_TYPE":"0","CLASSIFICATION_TYPE":"U","PERIOD":"95.592","NORAD_CAT_ID":"47171","OBJECT_ID":"2020-088BB","TIME_SYSTEM":"UTC","GP_ID":"204192033","ECCENTRICITY":"0.00017390","REF_FRAME":"TEME","SEMIMAJOR_AXIS":"6925.352"},{"REV_AT_EPOCH":"8267","DECAY_DATE":null,"COUNTRY_CODE":"US","INCLINATION":"53.0565","PERIAPSIS":"545.970","MEAN_MOTION_DDOT":"0.0000000000000","OBJECT_TYPE":"PAYLOAD","EPOCH":"2022-05-21T22:23:02.578272","RA_OF_ASC_NODE":"51.5090","TLE_LINE2":"2 47173  53.0565  51.5090 0001868  51.3251 308.7905 15.06383570 82671","MEAN_MOTION_DOT":"-0.00001610","CENTER_NAME":"EARTH","MEAN_ELEMENT_THEORY":"SGP4","ELEMENT_SET_NO":"999","SITE":"AFETR","MEAN_ANOMALY":"308.7905","ECCENTRICITY":"0.00018680","REF_FRAME":"TEME","SEMIMAJOR_AXIS":"6925.399","GP_ID":"204192283","CLASSIFICATION_TYPE":"U","PERIOD":"95.593","NORAD_CAT_ID":"47173","TIME_SYSTEM":"UTC","OBJECT_ID":"2020-088BD","ARG_OF_PERICENTER":"51.3251","BSTAR":"-0.00008923900000","EPHEMERIS_TYPE":"0","APOAPSIS":"548.558","MEAN_MOTION":"15.06383570","FILE":"3457577","LAUNCH_DATE":"2020-11-25","RCS_SIZE":"LARGE","OBJECT_NAME":"STARLINK-1890","TLE_LINE1":"1 47173U 20088BD  22141.93266873 -.00001610  00000-0 -89239-4 0  9999"},{"DECAY_DATE":null,"REV_AT_EPOCH":"8266","INCLINATION":"53.0537","COUNTRY_CODE":"US","MEAN_MOTION_DDOT":"0.0000000000000","PERIAPSIS":"545.917","OBJECT_TYPE":"PAYLOAD","RA_OF_ASC_NODE":"51.7499","EPOCH":"2022-05-21T21:03:25.848864","TLE_LINE2":"2 47174  53.0537  51.7499 0001863  47.9632 312.1516 15.06401938 82660","MEAN_MOTION_DOT":"0.00003229","CENTER_NAME":"EARTH","MEAN_ELEMENT_THEORY":"SGP4","ELEMENT_SET_NO":"999","SITE":"AFETR","MEAN_ANOMALY":"312.1516","ECCENTRICITY":"0.00018630","SEMIMAJOR_AXIS":"6925.343","REF_FRAME":"TEME","GP_ID":"204192548","CLASSIFICATION_TYPE":"U","PERIOD":"95.592","OBJECT_ID":"2020-088BE","NORAD_CAT_ID":"47174","TIME_SYSTEM":"UTC","ARG_OF_PERICENTER":"47.9632","EPHEMERIS_TYPE":"0","BSTAR":"0.00023555000000","FILE":"3457577","MEAN_MOTION":"15.06401938","APOAPSIS":"548.498","LAUNCH_DATE":"2020-11-25","OBJECT_NAME":"STARLINK-1891","RCS_SIZE":"LARGE","TLE_LINE1":"1 47174U 20088BE  22141.87738251  .00003229  00000-0  23555-3 0  9991"},{"MEAN_MOTION_DOT":"0.00001586","CENTER_NAME":"EARTH","MEAN_ELEMENT_THEORY":"SGP4","ELEMENT_SET_NO":"999","SITE":"AFETR","MEAN_ANOMALY":"325.7393","REV_AT_EPOCH":"8294","DECAY_DATE":null,"COUNTRY_CODE":"US","INCLINATION":"53.0569","PERIAPSIS":"545.658","MEAN_MOTION_DDOT":"0.0000000000000","OBJECT_TYPE":"PAYLOAD","EPOCH":"2022-05-21T21:00:45.777312","RA_OF_ASC_NODE":"31.7597","TLE_LINE2":"2 47175  53.0569  31.7597 0002194  34.3737 325.7393 15.06411731 82943","ARG_OF_PERICENTER":"34.3737","BSTAR":"0.00012533000000","EPHEMERIS_TYPE":"0","APOAPSIS":"548.697","MEAN_MOTION":"15.06411731","FILE":"3457577","LAUNCH_DATE":"2020-11-25","RCS_SIZE":"LARGE","OBJECT_NAME":"STARLINK-1895","TLE_LINE1":"1 47175U 20088BF  22141.87552983  .00001586  00000-0  12533-3 0  9996","ECCENTRICITY":"0.00021940","REF_FRAME":"TEME","SEMIMAJOR_AXIS":"6925.313","GP_ID":"204193284","PERIOD":"95.591","CLASSIFICATION_TYPE":"U","OBJECT_ID":"2020-088BF","NORAD_CAT_ID":"47175","TIME_SYSTEM":"UTC"},{"EPHEMERIS_TYPE":"0","BSTAR":"-0.00005416400000","ARG_OF_PERICENTER":"49.8913","LAUNCH_DATE":"2020-11-25","FILE":"3457577","MEAN_MOTION":"15.06392447","APOAPSIS":"548.546","TLE_LINE1":"1 47177U 20088BH  22141.92623056 -.00001088  00000-0 -54164-4 0  9990","OBJECT_NAME":"STARLINK-1907","RCS_SIZE":"LARGE","SEMIMAJOR_AXIS":"6925.372","REF_FRAME":"TEME","ECCENTRICITY":"0.00018900","GP_ID":"204191547","NORAD_CAT_ID":"47177","OBJECT_ID":"2020-088BH","TIME_SYSTEM":"UTC","PERIOD":"95.593","CLASSIFICATION_TYPE":"U","CENTER_NAME":"EARTH","MEAN_MOTION_DOT":"-0.00001088","MEAN_ELEMENT_THEORY":"SGP4","ELEMENT_SET_NO":"999","MEAN_ANOMALY":"310.2241","SITE":"AFETR","INCLINATION":"53.0571","COUNTRY_CODE":"US","DECAY_DATE":null,"REV_AT_EPOCH":"8281","MEAN_MOTION_DDOT":"0.0000000000000","PERIAPSIS":"545.928","OBJECT_TYPE":"PAYLOAD","TLE_LINE2":"2 47177  53.0571  41.5322 0001890  49.8913 310.2241 15.06392447 82811","RA_OF_ASC_NODE":"41.5322","EPOCH":"2022-05-21T22:13:46.320384"},{"TIME_SYSTEM":"UTC","NORAD_CAT_ID":"47178","OBJECT_ID":"2020-088BJ","PERIOD":"95.592","CLASSIFICATION_TYPE":"U","GP_ID":"204191797","REF_FRAME":"TEME","SEMIMAJOR_AXIS":"6925.356","ECCENTRICITY":"0.00016400","TLE_LINE1":"1 47178U 20088BJ  22141.90687357 -.00000143  00000-0  93043-5 0  9993","OBJECT_NAME":"STARLINK-1912","RCS_SIZE":"LARGE","LAUNCH_DATE":"2020-11-25","APOAPSIS":"548.357","FILE":"3457577","MEAN_MOTION":"15.06397494","BSTAR":"0.00000930430000","EPHEMERIS_TYPE":"0","ARG_OF_PERICENTER":"67.2890","TLE_LINE2":"2 47178  53.0572  51.6120 0001640  67.2890 292.8273 15.06397494 82662","EPOCH":"2022-05-21T21:45:53.876448","RA_OF_ASC_NODE":"51.6120","OBJECT_TYPE":"PAYLOAD","PERIAPSIS":"546.085","MEAN_MOTION_DDOT":"0.0000000000000","COUNTRY_CODE":"US","INCLINATION":"53.0572","REV_AT_EPOCH":"8266","DECAY_DATE":null,"MEAN_ANOMALY":"292.8273","SITE":"AFETR","ELEMENT_SET_NO":"999","MEAN_ELEMENT_THEORY":"SGP4","CENTER_NAME":"EARTH","MEAN_MOTION_DOT":"-0.00000143"},{"TLE_LINE1":"1 47179U 20088BK  22141.49680742  .00001366  00000-0  11061-3 0  9994","OBJECT_NAME":"STARLINK-1913","RCS_SIZE":"LARGE","LAUNCH_DATE":"2020-11-25","APOAPSIS":"548.465","MEAN_MOTION":"15.06398076","FILE":"3457102","BSTAR":"0.00011061000000","EPHEMERIS_TYPE":"0","ARG_OF_PERICENTER":"62.8202","OBJECT_ID":"2020-088BK","NORAD_CAT_ID":"47179","TIME_SYSTEM":"UTC","CLASSIFICATION_TYPE":"U","PERIOD":"95.592","GP_ID":"204156486","REF_FRAME":"TEME","SEMIMAJOR_AXIS":"6925.354","ECCENTRICITY":"0.00017990","MEAN_ANOMALY":"297.2971","SITE":"AFETR","ELEMENT_SET_NO":"999","MEAN_ELEMENT_THEORY":"SGP4","CENTER_NAME":"EARTH","MEAN_MOTION_DOT":"0.00001366","TLE_LINE2":"2 47179  53.0570  63.4471 0001799  62.8202 297.2971 15.06398076 82463","EPOCH":"2022-05-21T11:55:24.161088","RA_OF_ASC_NODE":"63.4471","OBJECT_TYPE":"PAYLOAD","PERIAPSIS":"545.974","MEAN_MOTION_DDOT":"0.0000000000000","COUNTRY_CODE":"US","INCLINATION":"53.0570","REV_AT_EPOCH":"8246","DECAY_DATE":null}];
